NORAD_CAT_ID,OBJECT_NAME,OBJECT_TYPE,EPOCH,MEAN_MOTION,ECCENTRICITY,INCLINATION,RA_OF_ASC_NODE,ARG_OF_PERICENTER,MEAN_ANOMALY,BSTAR,MEAN_MOTION_DOT,MEAN_MOTION_DDOT,TLE_LINE0,TLE_LINE1,TLE_LINE2,SEMIMAJOR_AXIS,PERIOD,APOGEE,PERIGEE,DECAYED
51133.0,STARLINK-3356,PAYLOAD,2024-08-09 02:49:38,15.08857328,0.0001072,53.2185,11.9485,89.6184,270.4931,0.0001393,1.931e-05,0.0,0 STARLINK-3356,1 51133U 22005AF  24222.11781158  .00001931  00000-0  13930-3 0  9999,2 51133  53.2185  11.9485 0001072  89.6184 270.4931 15.08857328142654,6917.827,95.436,540.434,538.951,0.0
51133.0,STARLINK-3356,PAYLOAD,2024-08-09 13:57:23,15.08826225,0.0001084,53.2181,9.8608,96.1897,263.9219,-0.000121,-2.212e-05,0.0,0 STARLINK-3356,1 51133U 22005AF  24222.58151870 -.00002212  00000-0 -12100-3 0  9995,2 51133  53.2181   9.8608 0001084  96.1897 263.9219 15.08826225141602,6917.922,95.438,540.537,539.038,0.0
51133.0,STARLINK-3356,PAYLOAD,2024-08-09 20:18:54,15.08846479,0.0001051,53.2182,8.6724,101.1494,258.9617,5.4974e-05,5.87e-06,0.0,0 STARLINK-3356,1 51133U 22005AF  24222.84646191  .00000587  00000-0  54974-4 0  9996,2 51133  53.2182   8.6724 0001051 101.1494 258.9617 15.08846479142760,6917.861,95.437,540.453,538.999,0.0
51133.0,STARLINK-3356,PAYLOAD,2024-08-10 13:48:09,15.08834763,0.0001175,53.2187,5.4014,94.7196,265.3931,7.9789e-05,9.82e-06,0.0,0 STARLINK-3356,1 51133U 22005AF  24223.57510897  .00000982  00000-0  79789-4 0  9990,2 51133  53.2187   5.4014 0001175  94.7196 265.3931 15.08834763141757,6917.896,95.438,540.574,538.949,0.0
51133.0,STARLINK-3356,PAYLOAD,2024-08-10 16:58:55,15.08840654,0.0001138,53.2181,4.8061,80.5957,279.5164,0.00013795,1.908e-05,0.0,0 STARLINK-3356,1 51133U 22005AF  24223.70758428  .00001908  00000-0  13795-3 0  9992,2 51133  53.2181   4.8061 0001138  80.5957 279.5164 15.08840654142890,6917.878,95.438,540.531,538.956,0.0
51133.0,STARLINK-3356,PAYLOAD,2024-08-11 02:31:13,15.08857322,0.0001023,53.218,3.0241,79.8703,280.2404,0.00015046,2.109e-05,0.0,0 STARLINK-3356,1 51133U 22005AF  24224.10501220  .00002109  00000-0  15046-3 0  9998,2 51133  53.2180   3.0241 0001023  79.8703 280.2404 15.08857322142956,6917.827,95.436,540.4,538.985,0.0
51133.0,STARLINK-3356,PAYLOAD,2024-08-11 08:52:48,15.08831382,0.0002514,53.2181,1.8349,84.938,275.19,-0.0001802,-3.155e-05,0.0,0 STARLINK-3356,1 51133U 22005AF  24224.37000095 -.00003155  00000-0 -18020-3 0  9990,2 51133  53.2181   1.8349 0002514  84.9380 275.1900 15.08831382142992,6917.907,95.438,541.511,538.033,0.0
51133.0,STARLINK-3356,PAYLOAD,2024-08-11 18:25:06,15.08831936,0.0001833,53.2182,0.0556,92.0141,268.1061,9.344e-05,1.199e-05,0.0,0 STARLINK-3356,1 51133U 22005AF  24224.76743603  .00001199  00000-0  93440-4 0  9996,2 51133  53.2182   0.0556 0001833  92.0141 268.1061 15.08831936141930,6917.905,95.438,541.038,538.502,0.0
51133.0,STARLINK-3356,PAYLOAD,2024-08-12 02:21:59,15.08870839,0.0001323,53.2201,358.5575,89.605,270.5094,1.1634e-05,-1.03e-06,0.0,0 STARLINK-3356,1 51133U 22005AF  24225.09860726 -.00000103  00000-0  11634-4 0  9999,2 51133  53.2201 358.5575 0001323  89.6050 270.5094 15.08870839143108,6917.786,95.436,540.566,538.736,0.0
51133.0,STARLINK-3356,PAYLOAD,2024-08-12 08:43:35,15.0880687,9.59e-05,53.2189,357.3704,109.0041,251.1055,-0.00039785,-6.608e-05,0.0,0 STARLINK-3356,1 51133U 22005AF  24225.36360370 -.00006608  00000-0 -39785-3 0  9992,2 51133  53.2189 357.3704 0000959 109.0041 251.1055 15.08806870143145,6917.982,95.44,540.51,539.183,0.0
51133.0,STARLINK-3356,PAYLOAD,2024-08-12 15:05:06,15.08849272,7.28e-05,53.2182,356.1824,106.995,253.1122,0.00012527,1.707e-05,0.0,0 STARLINK-3356,1 51133U 22005AF  24225.62854385  .00001707  00000-0  12527-3 0  9993,2 51133  53.2182 356.1824 0000728 106.9950 253.1122 15.08849272142067,6917.852,95.437,540.221,539.213,0.0
51133.0,STARLINK-3356,PAYLOAD,2024-08-12 18:15:52,15.08856429,0.0001828,53.2178,355.5884,99.7571,260.3628,0.00022139,3.239e-05,0.0,0 STARLINK-3356,1 51133U 22005AF  24225.76102084  .00003239  00000-0  22139-3 0  9992,2 51133  53.2178 355.5884 0001828  99.7571 260.3628 15.08856429143201,6917.83,95.437,540.96,538.431,0.0
51133.0,STARLINK-3356,PAYLOAD,2024-08-12 21:26:37,15.08886283,0.0001029,53.2185,354.9924,122.9092,237.2,0.00090924,0.0001423,0.0,0 STARLINK-3356,1 51133U 22005AF  24225.89348641  .00014230  00000-0  90924-3 0  9997,2 51133  53.2185 354.9924 0001029 122.9092 237.2000 15.08886283142103,6917.739,95.435,540.316,538.892,0.0
51133.0,STARLINK-3356,PAYLOAD,2024-08-13 02:12:46,15.08884708,0.0002519,53.2176,354.1018,75.9585,284.1687,0.00086099,0.00013458,0.0,0 STARLINK-3356,1 51133U 22005AF  24226.09220946  .00013458  00000-0  86099-3 0  9996,2 51133  53.2176 354.1018 0002519  75.9585 284.1687 15.08884708143257,6917.744,95.435,541.351,537.866,0.0
51133.0,STARLINK-3356,PAYLOAD,2024-08-13 19:42:03,15.08822025,6.19e-05,53.2229,350.8344,49.5981,310.5065,-0.00038623,-6.426e-05,0.0,0 STARLINK-3356,1 51133U 22005AF  24226.82086993 -.00006426  00000-0 -38623-3 0  9998,2 51133  53.2229 350.8344 0000619  49.5981 310.5065 15.08822025143367,6917.935,95.439,540.229,539.372,0.0
51133.0,STARLINK-3356,PAYLOAD,2024-08-14 13:11:17,15.08835841,0.0001259,53.2182,347.5645,62.2993,297.8126,0.00020261,2.938e-05,0.0,0 STARLINK-3356,1 51133U 22005AF  24227.54951335  .00002938  00000-0  20261-3 0  9990,2 51133  53.2182 347.5645 0001259  62.2993 297.8126 15.08835841143475,6917.893,95.438,540.629,538.887,0.0
51133.0,STARLINK-3356,PAYLOAD,2024-08-14 14:46:40,15.08840528,0.000123,53.2178,347.2654,72.6664,287.4463,0.00027086,4.026e-05,0.0,0 STARLINK-3356,1 51133U 22005AF  24227.61575154  .00004026  00000-0  27086-3 0  9991,2 51133  53.2178 347.2654 0001230  72.6664 287.4463 15.08840528142360,6917.879,95.438,540.595,538.893,0.0
51133.0,STARLINK-3356,PAYLOAD,2024-08-15 14:37:28,15.08843726,0.0001419,53.2172,342.8008,72.0226,288.0921,0.00021076,3.068e-05,0.0,0 STARLINK-3356,1 51133U 22005AF  24228.60935380  .00003068  00000-0  21076-3 0  9990,2 51133  53.2172 342.8008 0001419  72.0226 288.0921 15.08843726142511,6917.869,95.437,540.716,538.752,0.0
51133.0,STARLINK-3356,PAYLOAD,2024-08-16 00:09:46,15.08852381,0.0001409,53.2182,341.018,78.3313,281.7837,0.00036122,5.467e-05,0.0,0 STARLINK-3356,1 51133U 22005AF  24229.00678872  .00005467  00000-0  36122-3 0  9998,2 51133  53.2182 341.0180 0001409  78.3313 281.7837 15.08852381143692,6917.843,95.437,540.682,538.733,0.0
51133.0,STARLINK-3356,PAYLOAD,2024-08-17 07:57:29,15.08837813,0.0001183,53.2176,335.0719,81.7355,278.3771,-2.4165e-05,-6.72e-06,0.0,0 STARLINK-3356,1 51133U 22005AF  24230.33159648 -.00000672  00000-0 -24165-4 0  9991,2 51133  53.2176 335.0719 0001183  81.7355 278.3771 15.08837813143893,6917.887,95.438,540.57,538.934,0.0
51133.0,STARLINK-3356,PAYLOAD,2024-08-17 15:54:26,15.08824402,0.0001873,53.2185,333.5868,90.1381,269.9826,-0.00018344,-3.205e-05,0.0,0 STARLINK-3356,1 51133U 22005AF  24230.66280244 -.00003205  00000-0 -18344-3 0  9990,2 51133  53.2185 333.5868 0001873  90.1381 269.9826 15.08824402143943,6917.928,95.439,541.089,538.497,0.0
51133.0,STARLINK-3356,PAYLOAD,2024-08-18 06:12:54,15.08840682,0.0001677,53.2185,330.9087,83.3394,276.7789,9.1926e-05,1.175e-05,0.0,0 STARLINK-3356,1 51133U 22005AF  24231.25895905  .00001175  00000-0  91926-4 0  9992,2 51133  53.2185 330.9087 0001677  83.3394 276.7789 15.08840682142915,6917.878,95.438,540.903,538.583,0.0
51133.0,STARLINK-3356,PAYLOAD,2024-08-18 12:34:26,15.08917062,9.78e-05,53.2174,329.7222,69.8204,290.2894,-0.0014362,-0.0002312,0.0,0 STARLINK-3356,1 51133U 22005AF  24231.52391281 -.00023120  00000-0 -14362-2 0  9993,2 51133  53.2174 329.7222 0000978  69.8204 290.2894 15.08917062144076,6917.645,95.433,540.186,538.833,0.0
51133.0,STARLINK-3356,PAYLOAD,2024-08-18 14:09:49,15.08847493,0.0001513,53.2172,329.4207,82.6265,277.4899,0.00042319,6.455e-05,0.0,0 STARLINK-3356,1 51133U 22005AF  24231.59015480  .00006455  00000-0  42319-3 0  9998,2 51133  53.2172 329.4207 0001513  82.6265 277.4899 15.08847493144083,6917.857,95.437,540.769,538.676,0.0
51133.0,STARLINK-3356,PAYLOAD,2024-08-19 10:49:50,15.0883666,0.000117,53.2171,325.5535,91.9458,268.1669,8.3331e-05,1.039e-05,0.0,0 STARLINK-3356,1 51133U 22005AF  24232.45128154  .00001039  00000-0  83331-4 0  9990,2 51133  53.2171 325.5535 0001170  91.9458 268.1669 15.08836660144210,6917.891,95.438,540.565,538.946,0.0
51133.0,STARLINK-3356,PAYLOAD,2024-08-20 12:16:00,15.08852641,0.0001471,53.2166,320.7955,87.0627,273.0533,9.6678e-06,-1.34e-06,0.0,0 STARLINK-3356,1 51133U 22005AF  24233.51111612 -.00000134  00000-0  96678-5 0  9994,2 51133  53.2166 320.7955 0001471  87.0627 273.0533 15.08852641144374,6917.842,95.437,540.724,538.689,0.0
51133.0,STARLINK-3356,PAYLOAD,2024-08-21 12:06:47,15.08840623,0.0002107,53.2174,316.3323,143.742,216.3715,0.0001007,1.315e-05,0.0,0 STARLINK-3356,1 51133U 22005AF  24234.50471664  .00001315  00000-0  10070-3 0  9991,2 51133  53.2174 316.3323 0002107 143.7420 216.3715 15.08840623144527,6917.878,95.438,541.201,538.286,0.0
51133.0,STARLINK-3356,PAYLOAD,2024-08-21 15:17:34,15.08835741,0.0001404,53.2178,315.7423,97.1582,262.957,9.8774e-05,1.284e-05,0.0,0 STARLINK-3356,1 51133U 22005AF  24234.63720427  .00001284  00000-0  98774-4 0  9992,2 51133  53.2178 315.7423 0001404  97.1582 262.9570 15.08835741143424,6917.893,95.438,540.73,538.787,0.0
